OBJECT_NAME,OBJECT_ID,EPOCH,MEAN_MOTION,ECCENTRICITY,INCLINATION,RA_OF_ASC_NODE,ARG_OF_PERICENTER,MEAN_ANOMALY,EPHEMERIS_TYPE,CLASSIFICATION_TYPE,NORAD_CAT_ID,ELEMENT_SET_NO,REV_AT_EPOCH,BSTAR,MEAN_MOTION_DOT,MEAN_MOTION_DDOT
SAUDISAT 1C (SO-50),2002-058C,2026-07-07T02:45:35.668224,14.83088031,.00747517,64.5520,67.3282,258.7570,100.5128,0,U,27607,999,26741,.10581655E-3,.749E-5,0
SAUDISAT 2,2004-025F,2026-07-06T22:46:15.147552,14.56695117,.00236555,98.5514,188.4419,234.4243,125.4749,0,U,28371,999,16862,.5855859E-4,.213E-5,0
SAUDISAT 3,2007-012B,2026-07-07T07:39:45.071424,14.71437357,.00150761,98.1464,138.7341,158.5157,201.6685,0,U,31118,999,3070,.4461828E-4,.226E-5,0
PISAT,2016-059B,2026-07-07T10:36:50.056128,14.69020153,.00300184,97.8185,188.0251,138.5610,221.7881,0,U,41784,999,52271,.14640444E-3,.817E-5,0
FLYING LAPTOP,2017-042G,2026-07-07T15:33:53.087904,15.01280337,.00199029,97.4786,343.4071,56.6434,303.6692,0,U,42831,999,48952,.23786929E-3,.3013E-4,0
SALSAT,2020-068K,2026-07-06T23:06:33.434208,15.30092809,.0008388,97.8858,192.2352,224.1445,135.9125,0,U,46495,999,31838,.20798571E-3,.5977E-4,0
